0 FENGYUN 1C DEB
1 36678U 99025DYY 13281.31978141  .00000301  00000-0  11389-3 0  2110
2 36678 098.6706 329.9867 0163962 266.2964 091.9487 14.31634919212660
0 FENGYUN 1C DEB
1 36678U 99025DYY 13284.39495004  .00000330  00000-0  12306-3 0  2126
2 36678 098.6702 333.0578 0163639 257.2180 101.0847 14.31637923213103
0 FENGYUN 1C DEB
1 36678U 99025DYY 13287.33033357  .00000362  00000-0  13362-3 0  2131
2 36678 098.6700 335.9912 0163668 248.6173 109.7559 14.31641259213520
0 FENGYUN 1C DEB
1 36678U 99025DYY 13290.33561132  .00000386  00000-0  14131-3 0  2144
2 36678 098.6697 338.9912 0163227 239.6195 118.8841 14.31644574213958
0 FENGYUN 1C DEB
1 36678U 99025DYY 13292.36242599  .00000417  00000-0  15136-3 0  2154
2 36678 098.6697 341.0172 0163331 233.8670 124.7427 14.31647368214244
